COMMENT,ORIGINATOR,NORAD_CAT_ID,OBJECT_NAME,OBJECT_TYPE,CLASSIFICATION_TYPE,INTLDES,EPOCH,EPOCH_MICROSECONDS,MEAN_MOTION,ECCENTRICITY,INCLINATION,RA_OF_ASC_NODE,ARG_OF_PERICENTER,MEAN_ANOMALY,EPHEMERIS_TYPE,ELEMENT_SET_NO,REV_AT_EPOCH,BSTAR,MEAN_MOTION_DOT,MEAN_MOTION_DDOT,FILE,TLE_LINE0,TLE_LINE1,TLE_LINE2,OBJECT_ID,OBJECT_NUMBER,SEMIMAJOR_AXIS,PERIOD,APOGEE,PERIGEE,DECAYED
GENERATED VIA SPACETRACK.ORG API,18 SPCS,52365,STARLINK-3874,PAYLOAD,U,22045AL,2023-06-07 20:54:28,519488,15.08836579,0.0001027,53.2177,24.4165,99.6306,260.4802,0,999,6407,6.0246e-05,6.71e-06,0,3927436,0 STARLINK-3874,1 52365U 22045AL  23158.87116342  .00000671  00000-0  60246-4 0  9991,2 52365  53.2177  24.4165 0001027  99.6306 260.4802 15.08836579 64074,2022-045AL,52365,6917.891,95.438,540.466,539.045,0
GENERATED VIA SPACETRACK.ORG API,18 SPCS,52365,STARLINK-3874,PAYLOAD,U,22045AL,2023-06-08 00:05:13,843680,15.08864805,9.3e-05,53.2176,23.8218,111.378,248.7311,0,999,6409,-0.00028864,-4.882e-05,0,3927703,0 STARLINK-3874,1 52365U 22045AL  23159.00363245 -.00004882  00000-0 -28864-3 0  9992,2 52365  53.2176  23.8218 0000930 111.3780 248.7311 15.08864805 64094,2022-045AL,52365,6917.805,95.436,540.313,539.026,0
GENERATED VIA SPACETRACK.ORG API,18 SPCS,52365,STARLINK-3874,PAYLOAD,U,22045AL,2023-06-08 00:05:13,843680,15.08864805,9.3e-05,53.2176,23.8218,111.378,248.7311,0,999,6409,-0.00028864,-4.882e-05,0,3928007,0 STARLINK-3874,1 52365U 22045AL  23159.00363245 -.00004882  00000-0 -28864-3 0  9992,2 52365  53.2176  23.8218 0000930 111.3780 248.7311 15.08864805 64094,2022-045AL,52365,6917.805,95.436,540.313,539.026,0
GENERATED VIA SPACETRACK.ORG API,18 SPCS,52365,STARLINK-3874,PAYLOAD,U,22045AL,2023-06-08 23:56:01,174848,15.08848202,0.0001045,53.2175,19.3612,91.2983,268.8129,0,999,6424,0.00014441,2.012e-05,0,3928502,0 STARLINK-3874,1 52365U 22045AL  23159.99723582  .00002012  00000-0  14441-3 0  9991,2 52365  53.2175  19.3612 0001045  91.2983 268.8129 15.08848202 64240,2022-045AL,52365,6917.855,95.437,540.443,538.997,0
GENERATED VIA SPACETRACK.ORG API,18 SPCS,52365,STARLINK-3874,PAYLOAD,U,22045AL,2023-06-09 07:52:57,170208,15.08845622,0.0001028,53.2179,17.8725,87.0604,273.0505,0,999,6429,4.8407e-05,4.83e-06,0,3928798,0 STARLINK-3874,1 52365U 22045AL  23160.32843947  .00000483  00000-0  48407-4 0  9998,2 52365  53.2179  17.8725 0001028  87.0604 273.0505 15.08845622 64290,2022-045AL,52365,6917.863,95.437,540.439,539.017,0
GENERATED VIA SPACETRACK.ORG API,18 SPCS,52365,STARLINK-3874,PAYLOAD,U,22045AL,2023-06-09 14:14:30,217920,15.08837347,0.0001114,53.2172,16.6823,112.583,247.528,0,999,6433,5.2434e-05,5.47e-06,0,3928876,0 STARLINK-3874,1 52365U 22045AL  23160.59340530  .00000547  00000-0  52434-4 0  9993,2 52365  53.2172  16.6823 0001114 112.5830 247.5280 15.08837347 64336,2022-045AL,52365,6917.888,95.438,540.524,538.983,0
GENERATED VIA SPACETRACK.ORG API,18 SPCS,52365,STARLINK-3874,PAYLOAD,U,22045AL,2023-06-09 14:14:30,217920,15.08837347,0.0001114,53.2172,16.6823,112.583,247.528,0,999,6433,5.2434e-05,5.47e-06,0,3929086,0 STARLINK-3874,1 52365U 22045AL  23160.59340530  .00000547  00000-0  52434-4 0  9993,2 52365  53.2172  16.6823 0001114 112.5830 247.5280 15.08837347 64336,2022-045AL,52365,6917.888,95.438,540.524,538.983,0
GENERATED VIA SPACETRACK.ORG API,18 SPCS,52365,STARLINK-3874,PAYLOAD,U,22045AL,2023-06-09 20:36:02,510496,15.08842057,0.0001136,53.2174,15.4952,91.134,268.9782,0,999,6437,8.1648e-05,1.012e-05,0,3929125,0 STARLINK-3874,1 52365U 22045AL  23160.85836239  .00001012  00000-0  81648-4 0  9995,2 52365  53.2174  15.4952 0001136  91.1340 268.9782 15.08842057 64372,2022-045AL,52365,6917.874,95.437,540.525,538.953,0
GENERATED VIA SPACETRACK.ORG API,18 SPCS,52365,STARLINK-3874,PAYLOAD,U,22045AL,2023-06-10 14:05:17,100672,15.08843309,0.0001123,53.2173,12.2245,87.0399,273.0722,0,999,6448,2.1891e-05,6.1e-07,0,3929709,0 STARLINK-3874,1 52365U 22045AL  23161.58700348  .00000061  00000-0  21891-4 0  9994,2 52365  53.2173  12.2245 0001123  87.0399 273.0722 15.08843309 64489,2022-045AL,52365,6917.87,95.437,540.512,538.958,0
GENERATED VIA SPACETRACK.ORG API,18 SPCS,52365,STARLINK-3874,PAYLOAD,U,22045AL,2023-06-10 20:26:49,399296,15.08846274,0.000111,53.2172,11.0348,88.0375,272.0744,0,999,6452,2.5285e-05,1.15e-06,0,3929969,0 STARLINK-3874,1 52365U 22045AL  23161.85196064  .00000115  00000-0  25285-4 0  9999,2 52365  53.2172  11.0348 0001110  88.0375 272.0744 15.08846274 64522,2022-045AL,52365,6917.861,95.437,540.494,538.958,0
GENERATED VIA SPACETRACK.ORG API,18 SPCS,52365,STARLINK-3874,PAYLOAD,U,22045AL,2023-06-10 23:37:35,636736,15.08846326,0.0001108,53.2173,10.4404,86.8237,273.2882,0,999,6454,2.4478e-05,1.02e-06,0,3930211,0 STARLINK-3874,1 52365U 22045AL  23161.98444024  .00000102  00000-0  24478-4 0  9994,2 52365  53.2173  10.4404 0001108  86.8237 273.2882 15.08846326 64545,2022-045AL,52365,6917.861,95.437,540.493,538.96,0
GENERATED VIA SPACETRACK.ORG API,18 SPCS,52365,STARLINK-3874,PAYLOAD,U,22045AL,2023-06-10 23:37:35,636736,15.08846326,0.0001108,53.2173,10.4404,86.8237,273.2882,0,999,6454,2.4478e-05,1.02e-06,0,3930529,0 STARLINK-3874,1 52365U 22045AL  23161.98444024  .00000102  00000-0  24478-4 0  9994,2 52365  53.2173  10.4404 0001108  86.8237 273.2882 15.08846326 64545,2022-045AL,52365,6917.861,95.437,540.493,538.96,0
GENERATED VIA SPACETRACK.ORG API,18 SPCS,52365,STARLINK-3874,PAYLOAD,U,22045AL,2023-06-11 20:17:36,706272,15.08841767,0.0001304,53.2161,6.5751,82.2956,277.8184,0,999,6467,2.482e-05,1.07e-06,0,3930737,0 STARLINK-3874,1 52365U 22045AL  23162.84556373  .00000107  00000-0  24820-4 0  9997,2 52365  53.2161   6.5751 0001304  82.2956 277.8184 15.08841767 64672,2022-045AL,52365,6917.875,95.437,540.642,538.838,0
GENERATED VIA SPACETRACK.ORG API,18 SPCS,52365,STARLINK-3874,PAYLOAD,U,22045AL,2023-06-11 23:28:22,744992,15.08843423,0.0001133,53.2172,5.9789,87.5185,272.5937,0,999,6469,7.5749e-05,9.18e-06,0,3931252,0 STARLINK-3874,1 52365U 22045AL  23162.97804103  .00000918  00000-0  75749-4 0  9994,2 52365  53.2172   5.9789 0001133  87.5185 272.5937 15.08843423 64691,2022-045AL,52365,6917.87,95.437,540.519,538.951,0
GENERATED VIA SPACETRACK.ORG API,18 SPCS,52365,STARLINK-3874,PAYLOAD,U,22045AL,2023-06-11 23:28:22,744992,15.08843423,0.0001133,53.2172,5.9789,87.5185,272.5937,0,999,6469,7.5749e-05,9.18e-06,0,3931287,0 STARLINK-3874,1 52365U 22045AL  23162.97804103  .00000918  00000-0  75749-4 0  9994,2 52365  53.2172   5.9789 0001133  87.5185 272.5937 15.08843423 64691,2022-045AL,52365,6917.87,95.437,540.519,538.951,0
GENERATED VIA SPACETRACK.ORG API,18 SPCS,52365,STARLINK-3874,PAYLOAD,U,22045AL,2023-06-12 20:08:23,412768,15.08843567,0.0001069,53.2175,2.1126,90.4438,269.6676,0,999,6482,8.2755e-05,1.03e-05,0,3931605,0 STARLINK-3874,1 52365U 22045AL  23163.83915987  .00001030  00000-0  82755-4 0  9994,2 52365  53.2175   2.1126 0001069  90.4438 269.6676 15.08843567 64821,2022-045AL,52365,6917.869,95.437,540.474,538.995,0
GENERATED VIA SPACETRACK.ORG API,18 SPCS,52365,STARLINK-3874,PAYLOAD,U,22045AL,2023-06-12 23:19:09,472224,15.08847691,0.0001138,53.2176,1.5177,93.6813,266.4309,0,999,6484,5.7762e-05,6.32e-06,0,3932134,0 STARLINK-3874,1 52365U 22045AL  23163.97163741  .00000632  00000-0  57762-4 0  9999,2 52365  53.2176   1.5177 0001138  93.6813 266.4309 15.08847691 64842,2022-045AL,52365,6917.857,95.437,540.509,538.935,0
GENERATED VIA SPACETRACK.ORG API,18 SPCS,52365,STARLINK-3874,PAYLOAD,U,22045AL,2023-06-14 13:28:25,911264,15.0883562,0.0001213,53.2191,354.383,102.1731,257.9398,0,999,6508,-2.8802e-05,-7.46e-06,0,3932904,0 STARLINK-3874,1 52365U 22045AL  23165.56141101 -.00000746  00000-0 -28802-4 0  9993,2 52365  53.2191 354.3830 0001213 102.1731 257.9398 15.08835620 65082,2022-045AL,52365,6917.894,95.438,540.598,538.92,0
GENERATED VIA SPACETRACK.ORG API,18 SPCS,52365,STARLINK-3874,PAYLOAD,U,22045AL,2023-06-14 19:49:58,248768,15.08838781,0.0001148,53.2195,353.1941,98.141,261.9712,0,999,6512,-2.5097e-05,-6.87e-06,0,3933215,0 STARLINK-3874,1 52365U 22045AL  23165.82636862 -.00000687  00000-0 -25097-4 0  9992,2 52365  53.2195 353.1941 0001148  98.1410 261.9712 15.08838781 65122,2022-045AL,52365,6917.884,95.438,540.543,538.955,0
GENERATED VIA SPACETRACK.ORG API,18 SPCS,52365,STARLINK-3874,PAYLOAD,U,22045AL,2023-06-15 13:19:12,806976,15.08838592,9.78e-05,53.2195,349.9226,90.7274,269.383,0,999,6523,7.5372e-05,9.12e-06,0,3933820,0 STARLINK-3874,1 52365U 22045AL  23166.55500934  .00000912  00000-0  75372-4 0  9993,2 52365  53.2195 349.9226 0000978  90.7274 269.3830 15.08838592 65232,2022-045AL,52365,6917.885,95.438,540.426,539.073,0
GENERATED VIA SPACETRACK.ORG API,18 SPCS,52365,STARLINK-3874,PAYLOAD,U,22045AL,2023-06-15 18:05:21,902208,15.08844682,9.88e-05,53.2185,349.0301,97.0965,263.014,0,999,6526,7.8444e-05,9.61e-06,0,3934042,0 STARLINK-3874,1 52365U 22045AL  23166.75372572  .00000961  00000-0  78444-4 0  9997,2 52365  53.2185 349.0301 0000988  97.0965 263.0140 15.08844682 65269,2022-045AL,52365,6917.866,95.437,540.415,539.048,0
GENERATED VIA SPACETRACK.ORG API,18 SPCS,52365,STARLINK-3874,PAYLOAD,U,22045AL,2023-06-15 18:05:21,902208,15.08844682,9.88e-05,53.2185,349.0301,97.0965,263.014,0,999,6526,7.8444e-05,9.61e-06,0,3934071,0 STARLINK-3874,1 52365U 22045AL  23166.75372572  .00000961  00000-0  78444-4 0  9997,2 52365  53.2185 349.0301 0000988  97.0965 263.0140 15.08844682 65269,2022-045AL,52365,6917.866,95.437,540.415,539.048,0
GENERATED VIA SPACETRACK.ORG API,18 SPCS,52365,STARLINK-3874,PAYLOAD,U,22045AL,2023-06-16 11:34:36,355008,15.08841324,9.64e-05,53.2178,345.7585,90.8413,269.269,0,999,6537,0.00017066,2.429e-05,0,3934686,0 STARLINK-3874,1 52365U 22045AL  23167.48236522  .00002429  00000-0  17066-3 0  9995,2 52365  53.2178 345.7585 0000964  90.8413 269.2690 15.08841324 65371,2022-045AL,52365,6917.876,95.437,540.408,539.074,0
